{"type": "FeatureCollection", "features": [ {"type": "Feature", "properties": {"norad_id": 33673, "name": "FENGYUN 1C DEB", "group": "fengyun-1c-debris", "lat": -31.520811003490042, "lon": 42.096384895504414, "alt_km": 942.8743559910954, "timestamp": "2025-12-15T10:55:21.430060+00:00", "meta": {"OBJECT_NAME": "FENGYUN 1C DEB", "OBJECT_ID": "1999-025DFJ", "EPOCH": "2025-12-14T22:10:11.155872", "MEAN_MOTION": 13.95539618, "ECCENTRICITY": 0.01078755, "INCLINATION": 99.3438, "RA_OF_ASC_NODE": 35.7625, "ARG_OF_PERICENTER": 218.3859, "MEAN_ANOMALY": 320.4406, "EPHEMERIS_TYPE": 0, "CLASSIFICATION_TYPE": "U", "NORAD_CAT_ID": 33673, "ELEMENT_SET_NO": 999, "REV_AT_EPOCH": 89932, "BSTAR": 0.00032222239, "MEAN_MOTION_DOT": 4.13e-06, "MEAN_MOTION_DDOT": 0}, "tle": {"line1": "1 33673U 99025DFJ 25348.92374023  .00000413  00000+0  32222-3 0  9990", "line2": "2 33673  99.3438  35.7625 0107875 218.3859 320.4406 13.95539618899322"}}, "geometry": {"type": "Point", "coordinates": [42.096384895504414, -31.520811003490042]}}, {"type": "Feature", "properties": {"norad_id": 33674, "name": "FENGYUN 1C DEB", "group": "fengyun-1c-debris", "lat": 24.056907958727322, "lon": 35.26224556844655, "alt_km": 1110.032436961803, "timestamp": "2025-12-15T10:55:21.430071+00:00", "meta": {"OBJECT_NAME": "FENGYUN 1C DEB", "OBJECT_ID": "1999-025DFK", "EPOCH": "2025-12-11T02:09:33.820992", "MEAN_MOTION": 13.76876092, "ECCENTRICITY": 0.02111463, "INCLINATION": 98.6054, "RA_OF_ASC_NODE": 35.1848, "ARG_OF_PERICENTER": 244.5756, "MEAN_ANOMALY": 113.3412, "EPHEMERIS_TYPE": 0, "CLASSIFICATION_TYPE": "U", "NORAD_CAT_ID": 33674, "ELEMENT_SET_NO": 999, "REV_AT_EPOCH": 88342, "BSTAR": 0.002704931, "MEAN_MOTION_DOT": 3.101e-05, "MEAN_MOTION_DDOT": 0}, "tle": {"line1": "1 33674U 99025DFK 25345.08997478  .00003101  00000+0  27049-2 0  9997", "line2": "2 33674  98.6054  35.1848 0211146 244.5756 113.3412 13.76876092883423"}}, "geometry": {"type": "Point", "coordinates": [35.26224556844655, 24.056907958727322]}}, {"type": "Feature", "properties": {"norad_id": 33676, "name": "FENGYUN 1C DEB", "group": "fengyun-1c-debris", "lat": -26.087055855993643, "lon": -170.40343077824224, "alt_km": 897.360374581639, "timestamp": "2025-12-15T10:55:21.430081+00:00", "meta": {"OBJECT_NAME": "FENGYUN 1C DEB", "OBJECT_ID": "1999-025DFM", "EPOCH": "2025-12-14T18:55:32.406528", "MEAN_MOTION": 14.35564121, "ECCENTRICITY": 0.02050248, "INCLINATION": 99.0961, "RA_OF_ASC_NODE": 13.3925, "ARG_OF_PERICENTER": 63.6582, "MEAN_ANOMALY": 298.5498, "EPHEMERIS_TYPE": 0, "CLASSIFICATION_TYPE": "U", "NORAD_CAT_ID": 33676, "ELEMENT_SET_NO": 999, "REV_AT_EPOCH": 65340, "BSTAR": 0.00015229195, "MEAN_MOTION_DOT": 5.02e-06, "MEAN_MOTION_DDOT": 0}, "tle": {"line1": "1 33676U 99025DFM 25348.78856952  .00000502  00000+0  15229-3 0  9990", "line2": "2 33676  99.0961  13.3925 0205024  63.6582 298.5498 14.35564121653402"}}, "geometry": {"type": "Point", "coordinates": [-170.40343077824224, -26.087055855993643]}}, {"type": "Feature", "properties": {"norad_id": 33678, "name": "FENGYUN 1C DEB", "group": "fengyun-1c-debris", "lat": -80.24477682169359, "lon": 167.27512646619732, "alt_km": 625.1814518449346, "timestamp": "2025-12-15T10:55:21.430090+00:00", "meta": {"OBJECT_NAME": "FENGYUN 1C DEB", "OBJECT_ID": "1999-025DFP", "EPOCH": "2025-12-14T15:26:35.611872", "MEAN_MOTION": 14.47358063, "ECCENTRICITY": 0.02049843, "INCLINATION": 99.0435, "RA_OF_ASC_NODE": 54.2839, "ARG_OF_PERICENTER": 231.0107, "MEAN_ANOMALY": 127.267, "EPHEMERIS_TYPE": 0, "CLASSIFICATION_TYPE": "U", "NORAD_CAT_ID": 33678, "ELEMENT_SET_NO": 999, "REV_AT_EPOCH": 95123, "BSTAR": 0.00069619547, "MEAN_MOTION_DOT": 3.26e-05, "MEAN_MOTION_DDOT": 0}, "tle": {"line1": "1 33678U 99025DFP 25348.64346773  .00003260  00000+0  69620-3 0  9990", "line2": "2 33678  99.0435  54.2839 0204984 231.0107 127.2670 14.47358063951237"}}, "geometry": {"type": "Point", "coordinates": [167.27512646619732, -80.24477682169359]}}, {"type": "Feature", "properties": {"norad_id": 33679, "name": "FENGYUN 1C DEB", "group": "fengyun-1c-debris", "lat": -29.781819370464365, "lon": 62.06233522515704, "alt_km": 483.655804047482, "timestamp": "2025-12-15T10:55:21.430101+00:00", "meta": {"OBJECT_NAME": "FENGYUN 1C DEB", "OBJECT_ID": "1999-025DFQ", "EPOCH": "2025-12-13T11:06:48.969792", "MEAN_MOTION": 15.026568, "ECCENTRICITY": 0.01483147, "INCLINATION": 99.3525, "RA_OF_ASC_NODE": 54.2486, "ARG_OF_PERICENTER": 297.3985, "MEAN_ANOMALY": 61.2211, "EPHEMERIS_TYPE": 0, "CLASSIFICATION_TYPE": "U", "NORAD_CAT_ID": 33679, "ELEMENT_SET_NO": 999, "REV_AT_EPOCH": 94134, "BSTAR": 0.0022719782, "MEAN_MOTION_DOT": 0.00038602, "MEAN_MOTION_DDOT": 0}, "tle": {"line1": "1 33679U 99025DFQ 25347.46306678  .00038602  00000+0  22720-2 0  9997", "line2": "2 33679  99.3525  54.2486 0148314 297.3985  61.2211 15.02656800941343"}}, "geometry": {"type": "Point", "coordinates": [62.06233522515704, -29.781819370464365]}}, {"type": "Feature", "properties": {"norad_id": 33682, "name": "FENGYUN 1C DEB", "group": "fengyun-1c-debris", "lat": 64.56873943047079, "lon": -123.32055624637462, "alt_km": 780.4243288432026, "timestamp": "2025-12-15T10:55:21.430111+00:00", "meta": {"OBJECT_NAME": "FENGYUN 1C DEB", "OBJECT_ID": "1999-025DFT", "EPOCH": "2025-12-14T02:24:51.967872", "MEAN_MOTION": 14.26692222, "ECCENTRICITY": 0.00285034, "INCLINATION": 99.4217, "RA_OF_ASC_NODE": 34.7844, "ARG_OF_PERICENTER": 78.8285, "MEAN_ANOMALY": 281.6095, "EPHEMERIS_TYPE": 0, "CLASSIFICATION_TYPE": "U", "NORAD_CAT_ID": 33682, "ELEMENT_SET_NO": 999, "REV_AT_EPOCH": 91717, "BSTAR": 0.0016135582, "MEAN_MOTION_DOT": 3.871e-05, "MEAN_MOTION_DDOT": 0}, "tle": {"line1": "1 33682U 99025DFT 25348.10060148  .00003871  00000+0  16136-2 0  9996", "line2": "2 33682  99.4217  34.7844 0028503  78.8285 281.6095 14.26692222917174"}}, "geometry": {"type": "Point", "coordinates": [-123.32055624637462, 64.56873943047079]}}, {"type": "Feature", "properties": {"norad_id": 33684, "name": "FENGYUN 1C DEB", "group": "fengyun-1c-debris", "lat": -9.73628556855885, "lon": -136.21135198832349, "alt_km": 812.7534333310596, "timestamp": "2025-12-15T10:55:21.430122+00:00", "meta": {"OBJECT_NAME": "FENGYUN 1C DEB", "OBJECT_ID": "1999-025DFV", "EPOCH": "2025-12-13T23:49:00.638400", "MEAN_MOTION": 14.73149672, "ECCENTRICITY": 0.02872912, "INCLINATION": 99.0658, "RA_OF_ASC_NODE": 43.7241, "ARG_OF_PERICENTER": 336.6485, "MEAN_ANOMALY": 22.1882, "EPHEMERIS_TYPE": 0, "CLASSIFICATION_TYPE": "U", "NORAD_CAT_ID": 33684, "ELEMENT_SET_NO": 999, "REV_AT_EPOCH": 93007, "BSTAR": 0.00092181897, "MEAN_MOTION_DOT": 0.00011484, "MEAN_MOTION_DDOT": 0}, "tle": {"line1": "1 33684U 99025DFV 25347.99236850  .00011484  00000+0  92182-3 0  9994", "line2": "2 33684  99.0658  43.7241 0287291 336.6485  22.1882 14.73149672930074"}}, "geometry": {"type": "Point", "coordinates": [-136.21135198832349, -9.73628556855885]}}, {"type": "Feature", "properties": {"norad_id": 33687, "name": "FENGYUN 1C DEB", "group": "fengyun-1c-debris", "lat": 67.08251173249195, "lon": -26.31108306736894, "alt_km": 517.4577954326442, "timestamp": "2025-12-15T10:55:21.430132+00:00", "meta": {"OBJECT_NAME": "FENGYUN 1C DEB", "OBJECT_ID": "1999-025DFY", "EPOCH": "2025-12-10T18:21:11.232576", "MEAN_MOTION": 15.18394694, "ECCENTRICITY": 0.01162924, "INCLINATION": 98.9979, "RA_OF_ASC_NODE": 350.1242, "ARG_OF_PERICENTER": 343.0209, "MEAN_ANOMALY": 16.7142, "EPHEMERIS_TYPE": 0, "CLASSIFICATION_TYPE": "U", "NORAD_CAT_ID": 33687, "ELEMENT_SET_NO": 999, "REV_AT_EPOCH": 71478, "BSTAR": 0.0024359908, "MEAN_MOTION_DOT": 0.0006019, "MEAN_MOTION_DDOT": 0}, "tle": {"line1": "1 33687U 99025DFY 25344.76471334  .00060190  00000+0  24360-2 0  9997", "line2": "2 33687  98.9979 350.1242 0116292 343.0209  16.7142 15.18394694714787"}}, "geometry": {"type": "Point", "coordinates": [-26.31108306736894, 67.08251173249195]}}, {"type": "Feature", "properties": {"norad_id": 33688, "name": "FENGYUN 1C DEB", "group": "fengyun-1c-debris", "lat": -39.52197681700406, "lon": -96.69835303091651, "alt_km": 714.7581285418464, "timestamp": "2025-12-15T10:55:21.430142+00:00", "meta": {"OBJECT_NAME": "FENGYUN 1C DEB", "OBJECT_ID": "1999-025DFZ", "EPOCH": "2025-12-13T13:03:13.087008", "MEAN_MOTION": 14.45620497, "ECCENTRICITY": 0.00538014, "INCLINATION": 99.3497, "RA_OF_ASC_NODE": 89.0096, "ARG_OF_PERICENTER": 260.4671, "MEAN_ANOMALY": 99.0435, "EPHEMERIS_TYPE": 0, "CLASSIFICATION_TYPE": "U", "NORAD_CAT_ID": 33688, "ELEMENT_SET_NO": 999, "REV_AT_EPOCH": 91493, "BSTAR": 0.003412042, "MEAN_MOTION_DOT": 0.00012244, "MEAN_MOTION_DDOT": 0}, "tle": {"line1": "1 33688U 99025DFZ 25347.54390147  .00012244  00000+0  34120-2 0  9991", "line2": "2 33688  99.3497  89.0096 0053801 260.4671  99.0435 14.45620497914934"}}, "geometry": {"type": "Point", "coordinates": [-96.69835303091651, -39.52197681700406]}}, {"type": "Feature", "properties": {"norad_id": 33689, "name": "FENGYUN 1C DEB", "group": "fengyun-1c-debris", "lat": -69.7587831771449, "lon": 149.90296308827635, "alt_km": 759.3125772245021, "timestamp": "2025-12-15T10:55:21.430153+00:00", "meta": {"OBJECT_NAME": "FENGYUN 1C DEB", "OBJECT_ID": "1999-025DGA", "EPOCH": "2025-12-07T05:58:19.079616", "MEAN_MOTION": 14.45083851, "ECCENTRICITY": 0.00480135, "INCLINATION": 99.5648, "RA_OF_ASC_NODE": 347.8823, "ARG_OF_PERICENTER": 167.5369, "MEAN_ANOMALY": 254.9476, "EPHEMERIS_TYPE": 0, "CLASSIFICATION_TYPE": "U", "NORAD_CAT_ID": 33689, "ELEMENT_SET_NO": 999, "REV_AT_EPOCH": 69451, "BSTAR": 0.0017194976, "MEAN_MOTION_DOT": 6.046e-05, "MEAN_MOTION_DDOT": 0}, "tle": {"line1": "1 33689U 99025DGA 25341.24883194  .00006046  00000+0  17195-2 0  9998", "line2": "2 33689  99.5648 347.8823 0048013 167.5369 254.9476 14.45083851694511"}}, "geometry": {"type": "Point", "coordinates": [149.90296308827635, -69.7587831771449]}}]}